#aV2021  2 25  0  0  0.00000000     288 DD+AD WGS84 FIT  NGA
## 2146 345600.00000000   300.00000000 59270 0.0000000000000
+   32     1  2  3  4  5  6  7  8  9 10 11 12 13 14 15 16 17
+         18 19 20 21 22 23 24 25 26 27 28 29 30 31 32  0  0
+          0  0  0  0  0  0  0  0  0  0  0  0  0  0  0  0  0
+          0  0  0  0  0  0  0  0  0  0  0  0  0  0  0  0  0
+          0  0  0  0  0  0  0  0  0  0  0  0  0  0  0  0  0
++         2  2  2  2  2  2  2  2  2  2  2  2  2  2  2  2  2
++         2  2  2  2  2  2  2  2  2  2  2  2  2  2  2  0  0
++         0  0  0  0  0  0  0  0  0  0  0  0  0  0  0  0  0
++         0  0  0  0  0  0  0  0  0  0  0  0  0  0  0  0  0
++         0  0  0  0  0  0  0  0  0  0  0  0  0  0  0  0  0
%c cc cc ccc ccc cccc cccc cccc cccc ccccc ccccc ccccc ccccc
%c cc cc ccc ccc cccc cccc cccc cccc ccccc ccccc ccccc ccccc
%f  0.0000000  0.000000000  0.00000000000  0.000000000000000
%f  0.0000000  0.000000000  0.00000000000  0.000000000000000
%i    0    0    0    0      0      0      0      0         0
%i    0    0    0    0      0      0      0      0         0
/*      NGA, ST. LOUIS,MO.                                  
/*   EPHEMERIS COMPUTED FROM 2 DAYS OF DATA                 
/*   EPOCHA v5 SMOOTHER                                     
/*   G2139 IERS2010 SATAF SATAPC                            
*  2021  2 25 20 45  0.00000000
P  1  14178.427522 -22154.393790   1665.699143    753.604899                    
V  1    859.168751   3309.859753  32378.341087     -0.081249                    
P  2 -17098.166512   4977.311187 -19057.017503   -580.571109                    
V  2   9752.440893 -23726.661840 -14425.313858     -0.038248                    
P  3  13773.089701 -12928.423048 -18706.333495    -92.792701                    
V  3  23612.458178   1267.523204  16681.754186     -0.102507                    
P  4   6552.536843 -16666.317498 -19590.853948   -182.681292                    
V  4  12954.806509  21309.391766 -13844.183967     -0.024914                    
P  5 -26059.255948   3855.970755   3959.709900    -34.685391                    
V  5  -5298.903307  -2591.507111 -30983.200350     -0.010200                    
P  6 -11407.246581  -9536.016440 -21940.305045     -1.596370                    
V  6  14069.768303 -24157.630865   3228.138770      0.014569                    
P  7   3753.247151 -23345.003726  11921.627971     71.283603                    
V  7   9939.954355 -11369.064993 -26613.476330      0.129467                    
P  8  11575.092854  -9800.802571  21787.026078    -11.642207                    
V  8  14678.476539  23442.645852   3040.339873     -0.014134                    
P  9  -4126.992736 -23308.756375 -12082.226707   -326.216284                    
V  9  10093.149433  11737.891897 -26245.414745     -0.033771                    
P 10  16394.490459  11871.792281  17445.098715    -69.261855                    
V 10 -21802.053022   1551.242014  19298.042671     -0.080621                    
P 11  10589.396875 -20641.274079  12808.292233    -14.470665                    
V 11   2658.145099  17061.920975  24081.957742      0.106443                    
P 12 -18152.787726  10141.586777 -16685.155102     -6.161760                    
V 12 -20592.201169  -2948.305308  21077.491883     -0.052680                    
P 13 -16125.196430  -1152.275956  20962.196689    101.364641                    
V 13  -9814.182020 -25032.930221  -8747.474360      0.043670                    
P 14 -14386.910825 -13230.159201  17979.420871     98.808652                    
V 14  22901.860778   -701.055956  17786.972066      0.015417                    
P 15 -10882.130171  11537.850891  20921.690648   -166.937411                    
V 15 -16983.123530 -21709.018167   3442.264438      0.026089                    
P 16  26694.429808    792.122482   2177.003376   -285.576705                    
V 16   2836.700866   2234.988366 -31599.587177     -0.057094                    
P 17 -13908.516897 -22286.268203  -3480.055181    400.341066                    
V 17   -338.962617  -5374.110180  31838.124855      0.064197                    
P 18  -1970.421671  22331.707124  14194.330813    348.794106                    
V 18 -11030.203803  14422.691832 -24268.830034      0.014286                    
P 19 -16569.927151 -17207.187265 -11990.237121    -33.701648                    
V 19  -4532.448884 -14103.074470  27053.823547      0.050200                    
P 20   4019.725806  15249.074985  21330.273130    524.519329                    
V 20 -26975.685105   4118.377163   1864.496972     -0.001701                    
P 21  16864.093823 -17529.218572  10845.471791     98.605201                    
V 21  -3069.804210  12788.202072  27731.322282      0.031429                    
P 22  21148.815694 -10746.612854 -11566.970671   -672.008445                    
V 22  15365.458261   1723.488716  26220.696410      0.077218                    
P 23   4647.037606  14827.411781  21522.801020    118.347142                    
V 23 -27341.991303   1256.908624   4994.106202     -0.002261                    
P 24 -15481.702244  20036.776685   7075.777445      1.843593                    
V 24    685.345299 -10146.947847  29632.279478     -0.004376                    
P 25  -3105.759523  15209.428772 -21786.963314     87.785866                    
V 25 -27077.782429   -277.880919   3983.664430      0.075935                    
P 26  24887.090920   4921.617917  -8366.737846     50.140831                    
V 26 -10356.664407   3381.835241 -28734.705698      0.054644                    
P 27  17553.865134   3913.722094  19509.065148    -83.371422                    
V 27  11825.100793  21995.763284 -14573.628414     -0.073032                    
P 28 -16354.729353 -12965.384549  16874.294153    610.333966                    
V 28  20471.030831    293.526273  20945.721446     -0.055217                    
P 29   2550.077938  23472.277567 -12167.476406   -301.673634                    
V 29  -8335.292808 -13017.540987 -26988.589306     -0.070171                    
P 30  -6255.901207 -17080.414535  19328.495963   -390.213763                    
V 30  14165.917496 -20174.586492 -13499.681882     -0.056599                    
P 31  13777.376570   6875.151950 -21733.720684   -102.266911                    
V 31 -14246.984824  23418.409674  -1170.461840     -0.022887                    
P 32  16189.923326  20587.266692  -4831.728679     19.874362                    
V 32    844.687128   6747.574507  30784.926466      0.010810                    
EOF
